INMARSAT 5-F3           
1 40882U 15042A   26048.21634346  .00000054  00000+0  00000+0 0  9990
2 40882   0.0153 101.7593 0001264 288.5208  14.3886  1.00268386 38369
MUOS-4                  
1 40887U 15044A   26048.14735542 -.00000087  00000+0  00000+0 0  9996
2 40887   4.1035  41.3986 0057074 357.6265 236.1342  1.00271465 38356
GSAT0205 (GALILEO 9)    
1 40889U 15045A   26043.95434207  .00000078  00000+0  00000+0 0  9996
2 40889  53.6403 225.6057 0359599  59.9658 303.5577  1.67410800 64211
GSAT0206 (GALILEO 10)   
1 40890U 15045B   26046.44784918  .00000076  00000+0  00000+0 0  9990
2 40890  54.9847 224.9629 0004152  49.8486 310.1784  1.70473592 64962
TJS-1                   
1 40892U 15046A   26048.21149010 -.00000151  00000+0  00000+0 0  9993
2 40892   0.0144  89.8264 0003654 279.7847   8.7336  1.00272996 38366
GAOFEN-9 01             
1 40894U 15047A   26048.28017668  .00001278  00000+0  16402-3 0  9993
2 40894  97.6453  89.3417 0027711 170.5042 189.6702 14.82628726562428
EXPRESS-AM8             
1 40895U 15048A   26047.32219785 -.00000107  00000+0  00000+0 0  9997
2 40895   0.0263 235.0214 0000380 245.6552 127.6106  1.00272820 38136
LILACSAT-2              
1 40908U 15049K   26048.27676538  .00020070  00000+0  39541-3 0  9997
2 40908  97.4837  80.8018 0006607 341.4832  18.6176 15.47235411577180
COSMOS 2507 (RODNIK-S *)
1 40920U 15050A   26048.29523005  .00000068  00000+0  42326-3 0  9995
2 40920  82.4963 154.3113 0009013 245.4926 114.5215 12.42922602471968
COSMOS 2508 (RODNIK-S *)
1 40921U 15050B   26048.24899378  .00000176  00000+0  11995-2 0  9997
2 40921  82.4915 152.8917 0012962 284.0862  75.8777 12.42909833471947
COSMOS 2509 (RODNIK-S *)
1 40922U 15050C   26048.26730275  .00000158  00000+0  10688-2 0  9998
2 40922  82.4922 152.9719 0013326 304.2390  55.7427 12.42930004471980
ASTROSAT                
1 40930U 15052A   26048.13315623  .00002198  00000+0  18696-3 0  9995
2 40930   5.9974 299.3669 0007427 122.6457 237.4387 14.82236807561987
BEIDOU-3S IGSO-2S       
1 40938U 15053A   26027.67705003 -.00000079  00000+0  00000+0 0  9998
2 40938  49.4373 260.4556 0061515 187.1638  17.4903  1.00254296 37942
SKY MUSTER 1 (NBN1A)    
1 40940U 15054A   26048.27987043  .00000000  00000+0  00000+0 0  9990
2 40940   0.0118 136.2750 0001663 195.6446  56.3414  1.00268467 38057
ARSAT 2                 
1 40941U 15054B   26048.23601687  .00000000  00000+0  00000+0 0  9994
2 40941   0.0193 100.3956 0001915 219.4509 191.3460  1.00268612 38105
MORELOS 3               
1 40946U 15056A   26048.22969018 -.00000037  00000+0  00000+0 0  9996
2 40946   3.0982  11.6605 0002739   2.2967 102.8166  1.00272531 38087
LINGQIAO VIDEO A        
1 40959U 15057B   26048.27219014  .00000770  00000+0  11545-3 0  9993
2 40959  97.6588  49.0294 0015610 303.0142  56.9569 14.77196662557709
LINGQIAO VIDEO B        
1 40960U 15057C   26048.25694351  .00001294  00000+0  18888-3 0  9993
2 40960  97.6561  50.2072 0015730 303.1467  56.8235 14.77288286557741
JILIN-1                 
1 40961U 15057D   26048.25598114  .00000814  00000+0  11944-3 0  9997
2 40961  97.6507  53.5998 0015642 296.3731  63.5874 14.77953849557898
AEROCUBE 5C             
1 40965U 15058B   26048.04995924  .00003697  00000+0  33354-3 0  9990
2 40965  64.7664 276.1202 0132012 110.6918 250.8404 14.90671767347740
AEROCUBE 7              
1 40966U 15058C   26048.04384496  .00005290  00000+0  43360-3 0  9996
2 40966  64.7606 260.8367 0122087 109.9548 251.4765 14.94643607347990
FOX-1A (AO-85)          
1 40967U 15058D   26048.12484620  .00003889  00000+0  35634-3 0  9993
2 40967  64.7756 291.8823 0129886 104.1224 257.4362 14.90181173 95675
SINOD-D 1               
1 40968U 15058E   26048.23601109  .00004958  00000+0  40924-3 0  9995
2 40968  64.7741 274.2499 0118317 101.6069 259.8353 14.94802522 98727
SNAP-3 ALICE            
1 40970U 15058G   26048.27916294  .00059182  00000+0  13822-2 0  9991
2 40970  64.7585 152.0019 0037639  80.6505 279.8884 15.41092147 98307
LMRST-SAT               
1 40971U 15058H   26048.05018033  .00003845  00000+0  35400-3 0  9994
2 40971  64.7761 288.2298 0132134 106.0804 255.4904 14.89810928 95650
SNAP-3 EDDIE            
1 40972U 15058J   26048.28933714  .00061906  00000+0  13918-2 0  9993
2 40972  64.7504 143.4849 0039095  84.8371 275.7227 15.42148728100432
PROPCUBE 3              
1 40973U 15058K   26048.03971447  .00004531  00000+0  38462-3 0  9995
2 40973  64.7677 267.6623 0124847 107.9586 253.5183 14.93301092 96853
BISONSAT                
1 40974U 15058L   26047.81056134  .00015639  00000+0  81945-3 0  9993
2 40974  64.7593 201.9754 0080362 100.6835 260.3350 15.13169225 97381
SNAP-3 JIMI             
1 40975U 15058M   26047.97670427  .00007993  00000+0  56782-3 0  9993
2 40975  64.7630 239.6964 0106962 105.2844 256.0127 15.00777983 96173
PROPCUBE 1 (FLORA)      
1 40976U 15058N   26048.16443685  .00003247  00000+0  31279-3 0  9992
2 40976  64.7758 307.0135 0131256 108.2573 253.2873 14.88479405 98397
SINOD-D 3               
1 40977U 15058P   26048.04847945  .00005117  00000+0  44129-3 0  9993
2 40977  64.7727 290.6903 0119710 106.5058 254.9247 14.92979894 96814
APSTAR-9                
1 40982U 15059A   26048.28021709 -.00000262  00000+0  00000+0 0  9991
2 40982   0.0585 293.5907 0002251 319.1287 137.4088  1.00272049 37915
TURKSAT 4B              
1 40984U 15060A   26048.22128259  .00000000  00000+0  00000+0 0  9996
2 40984   0.0176 143.3380 0001914 195.3018 298.2016  1.00268867 37898
NAVSTAR 75 (USA 265)    
1 41019U 15062A   26047.62177895 -.00000033  00000+0  00000+0 0  9998
2 41019  56.8815  35.4565 0111514 231.3269 127.6858  2.00567122 75416
ZHONGXING-2C            
1 41021U 15063A   26048.18345870 -.00000320  00000+0  00000+0 0  9993
2 41021   0.0506 254.6410 0007218 331.6848  90.3119  1.00273394 37770
YAOGAN-28               
1 41026U 15064A   26048.30511093  .00009727  00000+0  38465-3 0  9994
2 41026  97.2863 189.2995 0009915 252.9208 107.0945 15.25631032572395
GSAT-15                 
1 41028U 15065A   26047.98528905  .00000000  00000+0  00000+0 0  9995
2 41028   0.0177 134.9719 0001434 189.8869 270.3276  1.00268083 37596
BADR-7 (ARABSAT-6B)     
1 41029U 15065B   26048.23239245  .00000149  00000+0  00000+0 0  9995
2 41029   0.0337 209.5337 0004169  47.4888 359.8271  1.00270654 37560
COSMOS 2510             
1 41032U 15066A   26046.52633763  .00001408  00000+0  00000+0 0  9992
2 41032  63.4306   3.0249 7211082 274.5229  13.9482  2.00888522 75020
LAOSAT 1                
1 41034U 15067A   26048.27753042 -.00000338  00000+0  00000+0 0  9994
2 41034   0.0151 100.4767 0001892 198.6335  76.5466  1.00274212 37655
TELSTAR 12V             
1 41036U 15068A   26048.24910361 -.00000115  00000+0  00000+0 0  9996
2 41036   0.0163  99.0272 0002490 238.2553 244.6075  1.00271253 37423
YAOGAN-29               
1 41038U 15069A   26048.28277325  .00000309  00000+0  44710-4 0  9994
2 41038  98.0165  76.6556 0002775  68.8727 291.2783 14.82970272552850
ELEKTRO-L 2             
1 41105U 15074A   26048.24919028 -.00000112  00000+0  00000+0 0  9996
2 41105   6.3906  72.0095 0003248 236.1862 274.2619  1.00272183 37303
COSMOS 2513             
1 41121U 15075A   26046.84163209 -.00000133  00000+0  00000+0 0  9994
2 41121   0.0421 104.6005 0002258 209.3306 215.1141  1.00271065 37337
VELOX-CI                
1 41166U 15077A   26046.93069120  .00023446  00000+0  46155-3 0  9998
2 41166  14.9824 300.2080 0005486 255.7083 104.2633 15.44732431563911
KENT RIDGE 1            
1 41167U 15077B   26048.29321697  .00005739  00000+0  20972-3 0  9994
2 41167  14.9802  77.0862 0008286 347.7073  12.3046 15.22271729562793
DAMPE                   
1 41173U 15078A   26048.27043160  .00001866  00000+0  65936-4 0  9993
2 41173  97.4568  53.1691 0013096 135.0693 225.1610 15.30421695566200
GSAT0209 (GALILEO 12)   
1 41174U 15079A   26046.02938851  .00000006  00000+0  00000+0 0  9997
2 41174  55.7479 104.6132 0004308 323.5894  36.4605  1.70474710 62690
GSAT0208 (GALILEO 11)   
1 41175U 15079B   26046.24959868  .00000008  00000+0  00000+0 0  9995
2 41175  55.7467 104.6042 0003963 321.0304  39.0216  1.70474504 63119
ORBCOMM FM114           
1 41179U 15081A   26047.84631827  .00000729  00000+0  19101-3 0  9997
2 41179  47.0033 210.8950 0001987 354.6617   5.4247 14.58693153540188
ORBCOMM FM110           
1 41182U 15081D   26047.49304179  .00000891  00000+0  22544-3 0  9994
2 41182  47.0004 212.0418 0003365 238.9809 121.0747 14.58686567540004
ORBCOMM FM118           
1 41183U 15081E   26047.80156257  .00000544  00000+0  15189-3 0  9994
2 41183  47.0027 210.8942 0003365 205.8745 154.1973 14.58682862540158
ORBCOMM FM112           
1 41184U 15081F   26048.21554383  .00000913  00000+0  23022-3 0  9998
2 41184  46.9984 117.4473 0001736 337.8976  22.1835 14.58690772541434
ORBCOMM FM113           
1 41185U 15081G   26048.26126895  .00000848  00000+0  21633-3 0  9990
2 41185  47.0002 117.5964 0001229 339.5958  20.4878 14.58693470541425
ORBCOMM FM108           
1 41187U 15081J   26048.01849255  .00000971  00000+0  24256-3 0  9998
2 41187  47.0059  30.2759 0002938 343.0439  17.0348 14.58695384542537
ORBCOMM FM117           
1 41188U 15081K   26047.98394184  .00000965  00000+0  24127-3 0  9990
2 41188  47.0020  29.1120 0003160 352.0832   8.0004 14.58688501542576
ORBCOMM FM116           
1 41189U 15081L   26048.23863678  .00000936  00000+0  23505-3 0  9996
2 41189  47.0016 117.6901 0002641 240.1820 119.8804 14.58683925541426
EXPRESS-AMU1            
1 41191U 15082A   26048.22683476  .00000000  00000+0  00000+0 0  9998
2 41191   0.0281 121.1336 0002991 191.8167 312.0093  1.00268818 37068
GAOFEN-4                
1 41194U 15083A   26048.05904273 -.00000330  00000+0  00000+0 0  9991
2 41194   0.3381  83.8528 0003578  79.2847 110.8491  1.00272009 37320
